[{"OBJECT_NAME":"STARLINK-31421","OBJECT_ID":"2024-046T","EPOCH":"2026-03-09T13:26:08.454912","MEAN_MOTION":15.30185382,"ECCENTRICITY":9.45e-5,"INCLINATION":53.1614,"RA_OF_ASC_NODE":155.6822,"ARG_OF_PERICENTER":117.4046,"MEAN_ANOMALY":242.7051,"EPHEMERIS_TYPE":0,"CLASSIFICATION_TYPE":"U","NORAD_CAT_ID":59218,"ELEMENT_SET_NO":999,"REV_AT_EPOCH":11302,"BSTAR":3.0686e-5,"MEAN_MOTION_DOT":5.5e-6,"MEAN_MOTION_DDOT":0},{"OBJECT_NAME":"SCS-01 D","OBJECT_ID":"2025-100D","EPOCH":"2026-03-09T18:08:45.040704","MEAN_MOTION":15.31902149,"ECCENTRICITY":0.00063457,"INCLINATION":97.373,"RA_OF_ASC_NODE":145.4097,"ARG_OF_PERICENTER":266.2302,"MEAN_ANOMALY":93.8214,"EPHEMERIS_TYPE":0,"CLASSIFICATION_TYPE":"U","NORAD_CAT_ID":63985,"ELEMENT_SET_NO":999,"REV_AT_EPOCH":4562,"BSTAR":0.0010528181,"MEAN_MOTION_DOT":0.00032471,"MEAN_MOTION_DDOT":0}]
